{
  "type": "FeatureCollection",
  "features": [
    {
      "type": "Feature",
      "properties": {
        "norad_id": 66913,
        "name": "2025-284A",
        "group": "last-30-days",
        "lat": 66.77446828817764,
        "lon": 143.97212522174192,
        "alt_km": 508.02611148032975,
        "timestamp": "2025-12-19T20:42:58.814666+00:00",
        "meta_object_name": "2025-284A",
        "meta_object_id": "2025-284A",
        "meta_epoch": "2025-12-18T06:24:29.359008",
        "meta_mean_motion": 15.16462178,
        "meta_eccentricity": 0.00203688,
        "meta_inclination": 80.4052,
        "meta_ra_of_asc_node": 122.7714,
        "meta_arg_of_pericenter": 156.4299,
        "meta_mean_anomaly": 203.7866,
        "meta_ephemeris_type": 0,
        "meta_classification_type": "U",
        "meta_norad_cat_id": 66913,
        "meta_element_set_no": 999,
        "meta_rev_at_epoch": 196,
        "meta_bstar": 0.00046237905,
        "meta_mean_motion_dot": 9.066e-05,
        "meta_mean_motion_ddot": 0,
        "tle_line1": "1 66913U 25284A   25352.26700647  .00009066  00000+0  46238-3 0  9991",
        "tle_line2": "2 66913  80.4052 122.7714 0020368 156.4299 203.7866 15.16462178  1964"
      },
      "geometry": {
        "type": "Point",
        "coordinates": [
          143.97212522174192,
          66.77446828817764
        ]
      }
    },
    {
      "type": "Feature",
      "properties": {
        "norad_id": 66914,
        "name": "2025-284B",
        "group": "last-30-days",
        "lat": 65.7418943375414,
        "lon": -81.31333042936005,
        "alt_km": 504.2831283132182,
        "timestamp": "2025-12-19T20:42:58.814676+00:00",
        "meta_object_name": "2025-284B",
        "meta_object_id": "2025-284B",
        "meta_epoch": "2025-12-16T06:51:11.417184",
        "meta_mean_motion": 15.18985981,
        "meta_eccentricity": 0.00081793,
        "meta_inclination": 80.4045,
        "meta_ra_of_asc_node": 125.2713,
        "meta_arg_of_pericenter": 234.9626,
        "meta_mean_anomaly": 125.0834,
        "meta_ephemeris_type": 0,
        "meta_classification_type": "U",
        "meta_norad_cat_id": 66914,
        "meta_element_set_no": 999,
        "meta_rev_at_epoch": 166,
        "meta_bstar": 0.00038444995,
        "meta_mean_motion_dot": 8.068e-05,
        "meta_mean_motion_ddot": 0,
        "tle_line1": "1 66914U 25284B   25350.28554881  .00008068  00000+0  38445-3 0  9991",
        "tle_line2": "2 66914  80.4045 125.2713 0008179 234.9626 125.0834 15.18985981  1668"
      },
      "geometry": {
        "type": "Point",
        "coordinates": [
          -81.31333042936005,
          65.7418943375414
        ]
      }
    },
    {
      "type": "Feature",
      "properties": {
        "norad_id": 66915,
        "name": "HULIANWANG DIGUI-105",
        "group": "last-30-days",
        "lat": -21.820825655548777,
        "lon": -72.09461579430446,
        "alt_km": 884.5965412518826,
        "timestamp": "2025-12-19T20:42:58.814687+00:00",
        "meta_object_name": "HULIANWANG DIGUI-105",
        "meta_object_id": "2025-285A",
        "meta_epoch": "2025-12-19T07:45:50.483808",
        "meta_mean_motion": 14.03717452,
        "meta_eccentricity": 0.00080227,
        "meta_inclination": 50.0047,
        "meta_ra_of_asc_node": 90.4628,
        "meta_arg_of_pericenter": 304.6743,
        "meta_mean_anomaly": 55.3405,
        "meta_ephemeris_type": 0,
        "meta_classification_type": "U",
        "meta_norad_cat_id": 66915,
        "meta_element_set_no": 999,
        "meta_rev_at_epoch": 183,
        "meta_bstar": 8.3554877e-05,
        "meta_mean_motion_dot": -1.9e-07,
        "meta_mean_motion_ddot": 0,
        "tle_line1": "1 66915U 25285A   25353.32350097 -.00000019  00000+0  83555-4 0  9996",
        "tle_line2": "2 66915  50.0047  90.4628 0008022 304.6743  55.3405 14.03717452  1831"
      },
      "geometry": {
        "type": "Point",
        "coordinates": [
          -72.09461579430446,
          -21.820825655548777
        ]
      }
    },
    {
      "type": "Feature",
      "properties": {
        "norad_id": 66916,
        "name": "HULIANWANG DIGUI-106",
        "group": "last-30-days",
        "lat": -31.98035708369023,
        "lon": -60.15037315375526,
        "alt_km": 883.4441866403531,
        "timestamp": "2025-12-19T20:42:58.814699+00:00",
        "meta_object_name": "HULIANWANG DIGUI-106",
        "meta_object_id": "2025-285B",
        "meta_epoch": "2025-12-19T07:41:38.696928",
        "meta_mean_motion": 14.03702384,
        "meta_eccentricity": 0.00068089,
        "meta_inclination": 50.0058,
        "meta_ra_of_asc_node": 90.4488,
        "meta_arg_of_pericenter": 297.8947,
        "meta_mean_anomaly": 62.1268,
        "meta_ephemeris_type": 0,
        "meta_classification_type": "U",
        "meta_norad_cat_id": 66916,
        "meta_element_set_no": 999,
        "meta_rev_at_epoch": 183,
        "meta_bstar": 7.9822733e-05,
        "meta_mean_motion_dot": -2.5e-07,
        "meta_mean_motion_ddot": 0,
        "tle_line1": "1 66916U 25285B   25353.32058677 -.00000025  00000+0  79823-4 0  9996",
        "tle_line2": "2 66916  50.0058  90.4488 0006808 297.8947  62.1268 14.03702384  1838"
      },
      "geometry": {
        "type": "Point",
        "coordinates": [
          -60.15037315375526,
          -31.98035708369023
        ]
      }
    },
    {
      "type": "Feature",
      "properties": {
        "norad_id": 66917,
        "name": "HULIANWANG DIGUI-107",
        "group": "last-30-days",
        "lat": -37.823262000776765,
        "lon": -51.109664063421505,
        "alt_km": 883.8078832161746,
        "timestamp": "2025-12-19T20:42:58.814709+00:00",
        "meta_object_name": "HULIANWANG DIGUI-107",
        "meta_object_id": "2025-285C",
        "meta_epoch": "2025-12-19T07:38:55.641120",
        "meta_mean_motion": 14.03662361,
        "meta_eccentricity": 0.00074733,
        "meta_inclination": 50.0023,
        "meta_ra_of_asc_node": 90.4327,
        "meta_arg_of_pericenter": 307.4223,
        "meta_mean_anomaly": 52.6001,
        "meta_ephemeris_type": 0,
        "meta_classification_type": "U",
        "meta_norad_cat_id": 66917,
        "meta_element_set_no": 999,
        "meta_rev_at_epoch": 183,
        "meta_bstar": 6.413734e-05,
        "meta_mean_motion_dot": -5e-07,
        "meta_mean_motion_ddot": 0,
        "tle_line1": "1 66917U 25285C   25353.31869955 -.00000050  00000+0  64137-4 0  9995",
        "tle_line2": "2 66917  50.0023  90.4327 0007473 307.4223  52.6001 14.03662361  1836"
      },
      "geometry": {
        "type": "Point",
        "coordinates": [
          -51.109664063421505,
          -37.823262000776765
        ]
      }
    },
    {
      "type": "Feature",
      "properties": {
        "norad_id": 66918,
        "name": "HULIANWANG DIGUI-108",
        "group": "last-30-days",
        "lat": -40.14973371265078,
        "lon": -46.703278204991854,
        "alt_km": 883.5332495421198,
        "timestamp": "2025-12-19T20:42:58.814720+00:00",
        "meta_object_name": "HULIANWANG DIGUI-108",
        "meta_object_id": "2025-285D",
        "meta_epoch": "2025-12-19T07:37:43.006368",
        "meta_mean_motion": 14.03601039,
        "meta_eccentricity": 0.00065916,
        "meta_inclination": 50.0045,
        "meta_ra_of_asc_node": 90.4319,
        "meta_arg_of_pericenter": 301.9823,
        "meta_mean_anomaly": 58.044,
        "meta_ephemeris_type": 0,
        "meta_classification_type": "U",
        "meta_norad_cat_id": 66918,
        "meta_element_set_no": 999,
        "meta_rev_at_epoch": 183,
        "meta_bstar": -1.3457518e-05,
        "meta_mean_motion_dot": -1.73e-06,
        "meta_mean_motion_ddot": 0,
        "tle_line1": "1 66918U 25285D   25353.31785887 -.00000173  00000+0 -13458-4 0  9994",
        "tle_line2": "2 66918  50.0045  90.4319 0006591 301.9823  58.0440 14.03601039  1839"
      },
      "geometry": {
        "type": "Point",
        "coordinates": [
          -46.703278204991854,
          -40.14973371265078
        ]
      }
    },
    {
      "type": "Feature",
      "properties": {
        "norad_id": 66919,
        "name": "HULIANWANG DIGUI-109",
        "group": "last-30-days",
        "lat": -43.537223627640536,
        "lon": -38.89383601538652,
        "alt_km": 883.4156116110289,
        "timestamp": "2025-12-19T20:42:58.814732+00:00",
        "meta_object_name": "HULIANWANG DIGUI-109",
        "meta_object_id": "2025-285E",
        "meta_epoch": "2025-12-19T07:35:51.677376",
        "meta_mean_motion": 14.03725272,
        "meta_eccentricity": 0.00078685,
        "meta_inclination": 50.0069,
        "meta_ra_of_asc_node": 90.4295,
        "meta_arg_of_pericenter": 314.3964,
        "meta_mean_anomaly": 45.6295,
        "meta_ephemeris_type": 0,
        "meta_classification_type": "U",
        "meta_norad_cat_id": 66919,
        "meta_element_set_no": 999,
        "meta_rev_at_epoch": 183,
        "meta_bstar": -1.7904595e-05,
        "meta_mean_motion_dot": -1.8e-06,
        "meta_mean_motion_ddot": 0,
        "tle_line1": "1 66919U 25285E   25353.31657034 -.00000180  00000+0 -17905-4 0  9996",
        "tle_line2": "2 66919  50.0069  90.4295 0007868 314.3964  45.6295 14.03725272  1837"
      },
      "geometry": {
        "type": "Point",
        "coordinates": [
          -38.89383601538652,
          -43.537223627640536
        ]
      }
    }
  ]
}